[{"OBJECT_NAME":"ONEWEB-0143","OBJECT_ID":"2020-100AH","EPOCH":"2026-03-09T21:43:43.746816","MEAN_MOTION":13.12443148,"ECCENTRICITY":0.00018052,"INCLINATION":87.9003,"RA_OF_ASC_NODE":10.3715,"ARG_OF_PERICENTER":78.3878,"MEAN_ANOMALY":281.7453,"EPHEMERIS_TYPE":0,"CLASSIFICATION_TYPE":"U","NORAD_CAT_ID":47289,"ELEMENT_SET_NO":999,"REV_AT_EPOCH":25162,"BSTAR":0.0013808909,"MEAN_MOTION_DOT":5.1e-6,"MEAN_MOTION_DDOT":0},{"OBJECT_NAME":"DELTA 1 DEB","OBJECT_ID":"1975-052LZ","EPOCH":"2026-03-09T22:38:25.486656","MEAN_MOTION":13.45203955,"ECCENTRICITY":0.02148763,"INCLINATION":99.8057,"RA_OF_ASC_NODE":240.4217,"ARG_OF_PERICENTER":312.3877,"MEAN_ANOMALY":202.8711,"EPHEMERIS_TYPE":0,"CLASSIFICATION_TYPE":"U","NORAD_CAT_ID":42640,"ELEMENT_SET_NO":999,"REV_AT_EPOCH":60270,"BSTAR":0.00085702682,"MEAN_MOTION_DOT":5.36e-6,"MEAN_MOTION_DDOT":0}]
